[{"OBJECT_NAME":"STARLINK-31063","OBJECT_ID":"2023-192S","EPOCH":"2026-03-09T23:18:53.049312","MEAN_MOTION":15.30191527,"ECCENTRICITY":0.0001071,"INCLINATION":53.1605,"RA_OF_ASC_NODE":51.0877,"ARG_OF_PERICENTER":74.1855,"MEAN_ANOMALY":285.9264,"EPHEMERIS_TYPE":0,"CLASSIFICATION_TYPE":"U","NORAD_CAT_ID":58547,"ELEMENT_SET_NO":999,"REV_AT_EPOCH":12617,"BSTAR":3.3768315e-5,"MEAN_MOTION_DOT":6.41e-6,"MEAN_MOTION_DDOT":0},{"OBJECT_NAME":"OBJECT BC","OBJECT_ID":"2025-313BC","EPOCH":"2026-03-09T04:33:08.504064","MEAN_MOTION":15.29126358,"ECCENTRICITY":0.00084789,"INCLINATION":97.3985,"RA_OF_ASC_NODE":144.811,"ARG_OF_PERICENTER":328.9209,"MEAN_ANOMALY":31.1528,"EPHEMERIS_TYPE":0,"CLASSIFICATION_TYPE":"U","NORAD_CAT_ID":67298,"ELEMENT_SET_NO":999,"REV_AT_EPOCH":789,"BSTAR":0.0026410397,"MEAN_MOTION_DOT":0.00075331,"MEAN_MOTION_DDOT":0}]
